{"type": "FeatureCollection", "features": [ {"type": "Feature", "properties": {"norad_id": 34432, "name": "COSMOS 2251 DEB", "group": "cosmos-2251-debris", "lat": 65.70755420433233, "lon": 150.78265281311752, "alt_km": 946.712399222486, "timestamp": "2025-12-07T22:37:43.476308+00:00", "meta": {"OBJECT_NAME": "COSMOS 2251 DEB", "OBJECT_ID": "1993-036RZ", "EPOCH": "2025-12-06T19:27:40.191840", "MEAN_MOTION": 14.02867127, "ECCENTRICITY": 0.0182941, "INCLINATION": 73.8288, "RA_OF_ASC_NODE": 112.7701, "ARG_OF_PERICENTER": 196.3544, "MEAN_ANOMALY": 282.3936, "EPHEMERIS_TYPE": 0, "CLASSIFICATION_TYPE": "U", "NORAD_CAT_ID": 34432, "ELEMENT_SET_NO": 999, "REV_AT_EPOCH": 85601, "BSTAR": 0.0021297689, "MEAN_MOTION_DOT": 3.799e-05, "MEAN_MOTION_DDOT": 0}, "tle": {"line1": "1 34432U 93036RZ  25340.81088185  .00003799  00000+0  21298-2 0  9991", "line2": "2 34432  73.8288 112.7701 0182941 196.3544 282.3936 14.02867127856011"}}, "geometry": {"type": "Point", "coordinates": [150.78265281311752, 65.70755420433233]}}, {"type": "Feature", "properties": {"norad_id": 34433, "name": "COSMOS 2251 DEB", "group": "cosmos-2251-debris", "lat": -67.79132366426131, "lon": 118.82647113688006, "alt_km": 751.4726622254802, "timestamp": "2025-12-07T22:37:43.476319+00:00", "meta": {"OBJECT_NAME": "COSMOS 2251 DEB", "OBJECT_ID": "1993-036SA", "EPOCH": "2025-12-06T23:10:46.553376", "MEAN_MOTION": 14.12814764, "ECCENTRICITY": 0.01518101, "INCLINATION": 74.0114, "RA_OF_ASC_NODE": 165.1647, "ARG_OF_PERICENTER": 304.4517, "MEAN_ANOMALY": 54.2355, "EPHEMERIS_TYPE": 0, "CLASSIFICATION_TYPE": "U", "NORAD_CAT_ID": 34433, "ELEMENT_SET_NO": 999, "REV_AT_EPOCH": 85868, "BSTAR": 0.0019334239, "MEAN_MOTION_DOT": 3.984e-05, "MEAN_MOTION_DDOT": 0}, "tle": {"line1": "1 34433U 93036SA  25340.96581659  .00003984  00000+0  19334-2 0  9996", "line2": "2 34433  74.0114 165.1647 0151810 304.4517  54.2355 14.12814764858683"}}, "geometry": {"type": "Point", "coordinates": [118.82647113688006, -67.79132366426131]}}, {"type": "Feature", "properties": {"norad_id": 34434, "name": "COSMOS 2251 DEB", "group": "cosmos-2251-debris", "lat": -35.60754171278505, "lon": -149.91045015752897, "alt_km": 831.9626480410652, "timestamp": "2025-12-07T22:37:43.476329+00:00", "meta": {"OBJECT_NAME": "COSMOS 2251 DEB", "OBJECT_ID": "1993-036SB", "EPOCH": "2025-12-07T06:40:18.621984", "MEAN_MOTION": 13.89753782, "ECCENTRICITY": 0.02755985, "INCLINATION": 74.0629, "RA_OF_ASC_NODE": 19.4124, "ARG_OF_PERICENTER": 157.9782, "MEAN_ANOMALY": 331.324, "EPHEMERIS_TYPE": 0, "CLASSIFICATION_TYPE": "U", "NORAD_CAT_ID": 34434, "ELEMENT_SET_NO": 999, "REV_AT_EPOCH": 83890, "BSTAR": 0.0035435544, "MEAN_MOTION_DOT": 5.887e-05, "MEAN_MOTION_DDOT": 0}, "tle": {"line1": "1 34434U 93036SB  25341.27799331  .00005887  00000+0  35436-2 0  9995", "line2": "2 34434  74.0629  19.4124 0275598 157.9782 331.3240 13.89753782838901"}}, "geometry": {"type": "Point", "coordinates": [-149.91045015752897, -35.60754171278505]}}, {"type": "Feature", "properties": {"norad_id": 34446, "name": "COSMOS 2251 DEB", "group": "cosmos-2251-debris", "lat": 73.81508610908462, "lon": 165.9281499330375, "alt_km": 734.3237717057227, "timestamp": "2025-12-07T22:37:43.476339+00:00", "meta": {"OBJECT_NAME": "COSMOS 2251 DEB", "OBJECT_ID": "1993-036SP", "EPOCH": "2025-12-07T05:37:59.265408", "MEAN_MOTION": 14.49343057, "ECCENTRICITY": 0.00514107, "INCLINATION": 74.0423, "RA_OF_ASC_NODE": 67.6047, "ARG_OF_PERICENTER": 206.8862, "MEAN_ANOMALY": 152.9633, "EPHEMERIS_TYPE": 0, "CLASSIFICATION_TYPE": "U", "NORAD_CAT_ID": 34446, "ELEMENT_SET_NO": 999, "REV_AT_EPOCH": 88614, "BSTAR": 0.00029904281, "MEAN_MOTION_DOT": 1.133e-05, "MEAN_MOTION_DDOT": 0}, "tle": {"line1": "1 34446U 93036SP  25341.23471372  .00001133  00000+0  29904-3 0  9990", "line2": "2 34446  74.0423  67.6047 0051410 206.8862 152.9633 14.49343057886142"}}, "geometry": {"type": "Point", "coordinates": [165.9281499330375, 73.81508610908462]}}, {"type": "Feature", "properties": {"norad_id": 34449, "name": "COSMOS 2251 DEB", "group": "cosmos-2251-debris", "lat": 0.8184559971792202, "lon": -100.004491709607, "alt_km": 576.4371844217867, "timestamp": "2025-12-07T22:37:43.476350+00:00", "meta": {"OBJECT_NAME": "COSMOS 2251 DEB", "OBJECT_ID": "1993-036SS", "EPOCH": "2025-12-06T17:26:58.798752", "MEAN_MOTION": 14.94314132, "ECCENTRICITY": 0.0023945, "INCLINATION": 74.0331, "RA_OF_ASC_NODE": 82.6786, "ARG_OF_PERICENTER": 129.4634, "MEAN_ANOMALY": 351.4112, "EPHEMERIS_TYPE": 0, "CLASSIFICATION_TYPE": "U", "NORAD_CAT_ID": 34449, "ELEMENT_SET_NO": 999, "REV_AT_EPOCH": 88603, "BSTAR": 0.0053124773, "MEAN_MOTION_DOT": 0.00057859, "MEAN_MOTION_DDOT": 0}, "tle": {"line1": "1 34449U 93036SS  25340.72706943  .00057859  00000+0  53125-2 0  9998", "line2": "2 34449  74.0331  82.6786 0023945 129.4634 351.4112 14.94314132886037"}}, "geometry": {"type": "Point", "coordinates": [-100.004491709607, 0.8184559971792202]}}, {"type": "Feature", "properties": {"norad_id": 34451, "name": "COSMOS 2251 DEB", "group": "cosmos-2251-debris", "lat": 40.01932541660064, "lon": -96.35518197349482, "alt_km": 561.8914131157635, "timestamp": "2025-12-07T22:37:43.476360+00:00", "meta": {"OBJECT_NAME": "COSMOS 2251 DEB", "OBJECT_ID": "1993-036SU", "EPOCH": "2025-12-07T07:33:43.262784", "MEAN_MOTION": 14.95062608, "ECCENTRICITY": 0.00250619, "INCLINATION": 74.0467, "RA_OF_ASC_NODE": 98.8077, "ARG_OF_PERICENTER": 122.0899, "MEAN_ANOMALY": 238.2724, "EPHEMERIS_TYPE": 0, "CLASSIFICATION_TYPE": "U", "NORAD_CAT_ID": 34451, "ELEMENT_SET_NO": 999, "REV_AT_EPOCH": 88554, "BSTAR": 0.0046844553, "MEAN_MOTION_DOT": 0.0005198, "MEAN_MOTION_DDOT": 0}, "tle": {"line1": "1 34451U 93036SU  25341.31508406  .00051980  00000+0  46845-2 0  9991", "line2": "2 34451  74.0467  98.8077 0025061 122.0899 238.2724 14.95062608885540"}}, "geometry": {"type": "Point", "coordinates": [-96.35518197349482, 40.01932541660064]}}, {"type": "Feature", "properties": {"norad_id": 34452, "name": "COSMOS 2251 DEB", "group": "cosmos-2251-debris", "lat": -49.06981032079133, "lon": 173.46946743166598, "alt_km": 501.68175748829617, "timestamp": "2025-12-07T22:37:43.476371+00:00", "meta": {"OBJECT_NAME": "COSMOS 2251 DEB", "OBJECT_ID": "1993-036SV", "EPOCH": "2025-12-07T07:29:07.080000", "MEAN_MOTION": 15.11471977, "ECCENTRICITY": 0.0067004, "INCLINATION": 74.0358, "RA_OF_ASC_NODE": 194.0507, "ARG_OF_PERICENTER": 271.5476, "MEAN_ANOMALY": 204.3763, "EPHEMERIS_TYPE": 0, "CLASSIFICATION_TYPE": "U", "NORAD_CAT_ID": 34452, "ELEMENT_SET_NO": 999, "REV_AT_EPOCH": 90580, "BSTAR": 0.0011028979, "MEAN_MOTION_DOT": 0.00019713, "MEAN_MOTION_DDOT": 0}, "tle": {"line1": "1 34452U 93036SV  25341.31188750  .00019713  00000+0  11029-2 0  9992", "line2": "2 34452  74.0358 194.0507 0067004 271.5476 204.3763 15.11471977905802"}}, "geometry": {"type": "Point", "coordinates": [173.46946743166598, -49.06981032079133]}}, {"type": "Feature", "properties": {"norad_id": 34453, "name": "COSMOS 2251 DEB", "group": "cosmos-2251-debris", "lat": 32.47489829024809, "lon": -80.35612224672136, "alt_km": 370.6728302272859, "timestamp": "2025-12-07T22:37:43.476382+00:00", "meta": {"OBJECT_NAME": "COSMOS 2251 DEB", "OBJECT_ID": "1993-036SW", "EPOCH": "2025-12-06T18:26:23.098560", "MEAN_MOTION": 15.65966911, "ECCENTRICITY": 0.00198455, "INCLINATION": 74.1117, "RA_OF_ASC_NODE": 112.721, "ARG_OF_PERICENTER": 343.115, "MEAN_ANOMALY": 16.9408, "EPHEMERIS_TYPE": 0, "CLASSIFICATION_TYPE": "U", "NORAD_CAT_ID": 34453, "ELEMENT_SET_NO": 999, "REV_AT_EPOCH": 88773, "BSTAR": 0.013797379, "MEAN_MOTION_DOT": 0.01595579, "MEAN_MOTION_DDOT": 0}, "tle": {"line1": "1 34453U 93036SW  25340.76832290  .01595579  00000+0  13797-1 0  9999", "line2": "2 34453  74.1117 112.7210 0019845 343.1150  16.9408 15.65966911887730"}}, "geometry": {"type": "Point", "coordinates": [-80.35612224672136, 32.47489829024809]}}, {"type": "Feature", "properties": {"norad_id": 34454, "name": "COSMOS 2251 DEB", "group": "cosmos-2251-debris", "lat": 21.44569863542329, "lon": 100.02515589786672, "alt_km": 786.6223939967413, "timestamp": "2025-12-07T22:37:43.476392+00:00", "meta": {"OBJECT_NAME": "COSMOS 2251 DEB", "OBJECT_ID": "1993-036SX", "EPOCH": "2025-12-07T06:52:49.734336", "MEAN_MOTION": 14.38794253, "ECCENTRICITY": 0.00353878, "INCLINATION": 74.0585, "RA_OF_ASC_NODE": 287.6797, "ARG_OF_PERICENTER": 351.3587, "MEAN_ANOMALY": 8.6953, "EPHEMERIS_TYPE": 0, "CLASSIFICATION_TYPE": "U", "NORAD_CAT_ID": 34454, "ELEMENT_SET_NO": 999, "REV_AT_EPOCH": 87989, "BSTAR": 0.00050878776, "MEAN_MOTION_DOT": 1.549e-05, "MEAN_MOTION_DDOT": 0}, "tle": {"line1": "1 34454U 93036SX  25341.28668674  .00001549  00000+0  50879-3 0  9993", "line2": "2 34454  74.0585 287.6797 0035387 351.3587   8.6953 14.38794253879893"}}, "geometry": {"type": "Point", "coordinates": [100.02515589786672, 21.44569863542329]}}, {"type": "Feature", "properties": {"norad_id": 34459, "name": "COSMOS 2251 DEB", "group": "cosmos-2251-debris", "lat": 72.02156333077193, "lon": 20.747450362171097, "alt_km": 963.5686009002357, "timestamp": "2025-12-07T22:37:43.476402+00:00", "meta": {"OBJECT_NAME": "COSMOS 2251 DEB", "OBJECT_ID": "1993-036TC", "EPOCH": "2025-12-07T01:35:32.786016", "MEAN_MOTION": 14.00483211, "ECCENTRICITY": 0.01919847, "INCLINATION": 74.0792, "RA_OF_ASC_NODE": 263.8541, "ARG_OF_PERICENTER": 334.9144, "MEAN_ANOMALY": 24.2752, "EPHEMERIS_TYPE": 0, "CLASSIFICATION_TYPE": "U", "NORAD_CAT_ID": 34459, "ELEMENT_SET_NO": 999, "REV_AT_EPOCH": 85632, "BSTAR": 0.00096179833, "MEAN_MOTION_DOT": 1.65e-05, "MEAN_MOTION_DDOT": 0}, "tle": {"line1": "1 34459U 93036TC  25341.06635169  .00001650  00000+0  96180-3 0  9995", "line2": "2 34459  74.0792 263.8541 0191984 334.9144  24.2752 14.00483211856325"}}, "geometry": {"type": "Point", "coordinates": [20.747450362171097, 72.02156333077193]}}]}